MTI                     
1 26102U 00014A   17040.45412730  .00003677  00000-0  78191-4 0  9997
2 26102  97.5597 205.9196 0008687  23.4364 358.5162 15.45650421934782
CFESAT                  
1 30777U 07006F   17039.79192123  .00002249  00000-0  76777-4 0  9996
2 30777  35.4248 182.2694 0005029 277.1577  82.8575 15.30228593548310
SPIRALE A               
1 33751U 09008C   17037.79779651  .00000008  00000-0  65633-4 0  9990
2 33751   2.0709 293.8506 5531761 175.4898 193.2057  4.58647572104866
SPIRALE B               
1 33752U 09008D   17039.36489525  .00007166  00000-0  98661-3 0  9992
2 33752   2.0949  59.9098 6979397 269.7977  17.2109  2.68522312 71372
SAPPHIRE                
1 39088U 13009C   17040.50117976  .00000075  00000-0  26753-4 0  9998
2 39088  98.5596 244.8171 0010771 318.1225  41.9625 14.34127786 18433
